[Satellite]
VERSION=1.1
NAME=STARLINK-1127
NICKNAME=STARLINK-1127
TLE1=1 45091U 20006AZ  20058.91667824  .00278299  00000-0  19255-2 0  9996
TLE2=2 45091  52.9970  89.6802 0001553  45.1400 254.8052 15.73156011  1775
STATUS=0
